NORAD_CAT_ID,OBJECT_NAME,OBJECT_TYPE,EPOCH,MEAN_MOTION,ECCENTRICITY,INCLINATION,RA_OF_ASC_NODE,ARG_OF_PERICENTER,MEAN_ANOMALY,BSTAR,MEAN_MOTION_DOT,MEAN_MOTION_DDOT,TLE_LINE0,TLE_LINE1,TLE_LINE2,SEMIMAJOR_AXIS,PERIOD,APOGEE,PERIGEE,DECAYED
53182.0,STARLINK-4278,PAYLOAD,2024-07-13 14:39:28,15.08845785,0.0001233,53.2173,330.9266,83.6026,276.5106,5.5638e-05,5.98e-06,0.0,0 STARLINK-4278,1 53182U 22083BC  24195.61074478  .00000598  00000-0  55638-4 0  9995,2 53182  53.2173 330.9266 0001233  83.6026 276.5106 15.08845785110500,6917.863,95.437,540.581,538.875,0.0
53182.0,STARLINK-4278,PAYLOAD,2024-07-13 16:14:51,15.08848156,0.0001203,53.2182,330.6307,82.8059,277.307,0.00010581,1.397e-05,0.0,0 STARLINK-4278,1 53182U 22083BC  24195.67698362  .00001397  00000-0  10581-3 0  9990,2 53182  53.2182 330.6307 0001203  82.8059 277.3070 15.08848156111153,6917.855,95.437,540.553,538.888,0.0
53182.0,STARLINK-4278,PAYLOAD,2024-07-14 12:54:52,15.0882553,0.0001325,53.2186,326.7668,81.7472,278.367,-0.00029083,-4.912e-05,0.0,0 STARLINK-4278,1 53182U 22083BC  24196.53811162 -.00004912  00000-0 -29083-3 0  9996,2 53182  53.2186 326.7668 0001325  81.7472 278.3670 15.08825530111287,6917.925,95.438,540.706,538.873,0.0
53182.0,STARLINK-4278,PAYLOAD,2024-07-14 14:30:15,15.08828807,0.0001414,53.2193,326.4702,81.7767,278.3386,-0.00020042,-3.475e-05,0.0,0 STARLINK-4278,1 53182U 22083BC  24196.60435175 -.00003475  00000-0 -20042-3 0  9999,2 53182  53.2193 326.4702 0001414  81.7767 278.3386 15.08828807110651,6917.915,95.438,540.758,538.801,0.0
53182.0,STARLINK-4278,PAYLOAD,2024-07-14 19:16:25,15.08831646,0.0001458,53.2182,325.5757,73.106,287.0092,0.00058633,9.054e-05,0.0,0 STARLINK-4278,1 53182U 22083BC  24196.80307009  .00009054  00000-0  58633-3 0  9999,2 53182  53.2182 325.5757 0001458  73.1060 287.0092 15.08831646111329,6917.906,95.438,540.78,538.762,0.0
53182.0,STARLINK-4278,PAYLOAD,2024-07-15 12:45:40,15.08829191,0.0001083,53.2164,322.3041,68.443,291.6677,0.00066757,0.00010349,0.0,0 STARLINK-4278,1 53182U 22083BC  24197.53171879  .00010349  00000-0  66757-3 0  9999,2 53182  53.2164 322.3041 0001083  68.4430 291.6677 15.08829191111436,6917.913,95.438,540.528,539.029,0.0
53182.0,STARLINK-4278,PAYLOAD,2024-07-15 14:21:03,15.08832916,0.0001323,53.2161,322.0065,70.9775,289.136,0.00079008,0.00012306,0.0,0 STARLINK-4278,1 53182U 22083BC  24197.59795967  .00012306  00000-0  79008-3 0  9993,2 53182  53.2161 322.0065 0001323  70.9775 289.1360 15.08832916110803,6917.902,95.438,540.682,538.852,0.0
53182.0,STARLINK-4278,PAYLOAD,2024-07-15 15:56:26,15.08841705,0.0001276,53.216,321.7095,71.7968,288.3163,0.00099928,0.00015652,0.0,0 STARLINK-4278,1 53182U 22083BC  24197.66419883  .00015652  00000-0  99928-3 0  9991,2 53182  53.2160 321.7095 0001276  71.7968 288.3163 15.08841705110810,6917.875,95.437,540.623,538.857,0.0
53182.0,STARLINK-4278,PAYLOAD,2024-07-16 01:28:45,15.08853012,0.0001198,53.2163,319.9273,77.584,282.5286,0.0015059,0.00023768,0.0,0 STARLINK-4278,1 53182U 22083BC  24198.06163836  .00023768  00000-0  15059-2 0  9999,2 53182  53.2163 319.9273 0001198  77.5840 282.5286 15.08853012111510,6917.841,95.437,540.534,538.877,0.0
53182.0,STARLINK-4278,PAYLOAD,2024-07-16 12:36:27,15.08844746,0.0001122,53.2165,317.8452,85.4742,274.6378,0.0014028,0.00022111,0.0,0 STARLINK-4278,1 53182U 22083BC  24198.52532098  .00022111  00000-0  14028-2 0  9996,2 53182  53.2165 317.8452 0001122  85.4742 274.6378 15.08844746111589,6917.866,95.437,540.507,538.955,0.0
53182.0,STARLINK-4278,PAYLOAD,2024-07-16 14:11:50,15.08844511,0.0001325,53.2159,317.5481,83.3236,276.7907,0.0012895,0.00020296,0.0,0 STARLINK-4278,1 53182U 22083BC  24198.59156117  .00020296  00000-0  12895-2 0  9999,2 53182  53.2159 317.5481 0001325  83.3236 276.7907 15.08844511110952,6917.867,95.437,540.648,538.815,0.0
53182.0,STARLINK-4278,PAYLOAD,2024-07-16 15:47:13,15.08843444,0.0001281,53.2159,317.2511,83.5498,276.564,0.0012215,0.00019207,0.0,0 STARLINK-4278,1 53182U 22083BC  24198.65780091  .00019207  00000-0  12215-2 0  9996,2 53182  53.2159 317.2511 0001281  83.5498 276.5640 15.08843444110963,6917.87,95.437,540.621,538.849,0.0
53182.0,STARLINK-4278,PAYLOAD,2024-07-17 12:27:14,15.0884227,0.0001264,53.2164,313.3792,120.6821,239.4296,0.00040485,6.162e-05,0.0,0 STARLINK-4278,1 53182U 22083BC  24199.51892126  .00006162  00000-0  40485-3 0  9992,2 53182  53.2164 313.3792 0001264 120.6821 239.4296 15.08842270111738,6917.873,95.437,540.613,538.864,0.0
53182.0,STARLINK-4278,PAYLOAD,2024-07-17 14:02:37,15.08843949,0.0001157,53.2185,313.0845,102.2171,257.8951,0.00018101,2.594e-05,0.0,0 STARLINK-4278,1 53182U 22083BC  24199.58516178  .00002594  00000-0  18101-3 0  9994,2 53182  53.2185 313.0845 0001157 102.2171 257.8951 15.08843949111109,6917.868,95.437,540.534,538.933,0.0
53182.0,STARLINK-4278,PAYLOAD,2024-07-18 13:53:25,15.08844845,0.0001115,53.215,308.6292,80.8184,279.2934,0.0003164,4.752e-05,0.0,0 STARLINK-4278,1 53182U 22083BC  24200.57876370  .00004752  00000-0  31640-3 0  9990,2 53182  53.2150 308.6292 0001115  80.8184 279.2934 15.08844845111897,6917.866,95.437,540.502,538.959,0.0
53182.0,STARLINK-4278,PAYLOAD,2024-07-19 12:08:49,15.08836621,0.0001288,53.2172,304.4589,103.836,256.2776,5.7606e-05,6.29e-06,0.0,0 STARLINK-4278,1 53182U 22083BC  24201.50612491  .00000629  00000-0  57606-4 0  9996,2 53182  53.2172 304.4589 0001288 103.8360 256.2776 15.08836621112036,6917.891,95.438,540.647,538.865,0.0
53182.0,STARLINK-4278,PAYLOAD,2024-07-19 13:44:12,15.08836107,0.0001231,53.2169,304.1624,98.7464,261.3668,6.3789e-05,7.27e-06,0.0,0 STARLINK-4278,1 53182U 22083BC  24201.57236597  .00000727  00000-0  63789-4 0  9990,2 53182  53.2169 304.1624 0001231  98.7464 261.3668 15.08836107111400,6917.892,95.438,540.609,538.906,0.0
53182.0,STARLINK-4278,PAYLOAD,2024-07-19 23:16:30,15.08851362,0.0001233,53.2184,302.3835,102.5881,257.5249,0.00023157,3.401e-05,0.0,0 STARLINK-4278,1 53182U 22083BC  24201.96979686  .00003401  00000-0  23157-3 0  9992,2 53182  53.2184 302.3835 0001233 102.5881 257.5249 15.08851362112100,6917.846,95.437,540.564,538.858,0.0
53182.0,STARLINK-4278,PAYLOAD,2024-07-20 13:34:59,15.08837455,0.000139,53.2182,299.7112,91.2321,268.883,-3.486e-05,-8.43e-06,0.0,0 STARLINK-4278,1 53182U 22083BC  24202.56596633 -.00000843  00000-0 -34860-4 0  9999,2 53182  53.2182 299.7112 0001390  91.2321 268.8830 15.08837455112199,6917.888,95.438,540.715,538.792,0.0
53182.0,STARLINK-4278,PAYLOAD,2024-07-20 23:07:17,15.08855796,0.0001126,53.2169,297.9209,80.5337,279.5782,0.00026981,4.011e-05,0.0,0 STARLINK-4278,1 53182U 22083BC  24202.96339506  .00004011  00000-0  26981-3 0  9990,2 53182  53.2169 297.9209 0001126  80.5337 279.5782 15.08855796112256,6917.832,95.437,540.476,538.918,0.0
53182.0,STARLINK-4278,PAYLOAD,2024-07-21 11:50:23,15.0882769,0.0001431,53.2181,295.545,96.5288,263.5867,2.2581e-07,-2.84e-06,0.0,0 STARLINK-4278,1 53182U 22083BC  24203.49333283 -.00000284  00000-0  22581-6 0  9999,2 53182  53.2181 295.5450 0001431  96.5288 263.5867 15.08827690112331,6917.918,95.438,540.773,538.793,0.0
53182.0,STARLINK-4278,PAYLOAD,2024-07-21 13:25:46,15.08831389,0.0001549,53.2181,295.2479,100.534,259.5827,-7.9942e-06,-4.15e-06,0.0,0 STARLINK-4278,1 53182U 22083BC  24203.55957127 -.00000415  00000-0 -79942-5 0  9994,2 53182  53.2181 295.2479 0001549 100.5340 259.5827 15.08831389111705,6917.907,95.438,540.843,538.7,0.0
53182.0,STARLINK-4278,PAYLOAD,2024-07-22 05:19:38,15.08842224,0.0001499,53.2181,292.2768,100.1682,259.9479,0.00029864,4.468e-05,0.0,0 STARLINK-4278,1 53182U 22083BC  24204.22196966  .00004468  00000-0  29864-3 0  9991,2 53182  53.2181 292.2768 0001499 100.1682 259.9479 15.08842224112441,6917.874,95.437,540.776,538.702,0.0
53182.0,STARLINK-4278,PAYLOAD,2024-07-22 14:51:57,15.08847355,0.0001511,53.217,290.488,88.7589,271.3576,0.00073051,0.0001136,0.0,0 STARLINK-4278,1 53182U 22083BC  24204.61941205  .00011360  00000-0  73051-3 0  9994,2 53182  53.2170 290.4880 0001511  88.7589 271.3576 15.08847355111867,6917.858,95.437,540.768,538.678,0.0
53182.0,STARLINK-4278,PAYLOAD,2024-07-23 09:56:34,15.08851954,0.0001546,53.2169,286.9192,93.6184,266.4985,0.00043432,6.633e-05,0.0,0 STARLINK-4278,1 53182U 22083BC  24205.41428864  .00006633  00000-0  43432-3 0  9991,2 53182  53.2169 286.9192 0001546  93.6184 266.4985 15.08851954112629,6917.844,95.437,540.778,538.639,0.0
53182.0,STARLINK-4278,PAYLOAD,2024-07-23 14:42:43,15.08847487,0.0001478,53.2165,286.0276,89.9349,270.1812,0.00024742,3.653e-05,0.0,0 STARLINK-4278,1 53182U 22083BC  24205.61300883  .00003653  00000-0  24742-3 0  9995,2 53182  53.2165 286.0276 0001478  89.9349 270.1812 15.08847487112014,6917.858,95.437,540.745,538.7,0.0
53182.0,STARLINK-4278,PAYLOAD,2024-07-24 05:01:12,15.08837636,0.0001471,53.214,283.3496,97.3542,262.7617,-2.5448e-05,-6.93e-06,0.0,0 STARLINK-4278,1 53182U 22083BC  24206.20917033 -.00000693  00000-0 -25448-4 0  9990,2 53182  53.2140 283.3496 0001471  97.3542 262.7617 15.08837636112747,6917.888,95.438,540.77,538.735,0.0
53182.0,STARLINK-4278,PAYLOAD,2024-07-24 09:47:21,15.08838153,0.000146,53.2146,282.4568,97.6388,262.477,9.8158e-07,-2.72e-06,0.0,0 STARLINK-4278,1 53182U 22083BC  24206.40789205 -.00000272  00000-0  98158-6 0  9992,2 53182  53.2146 282.4568 0001460  97.6388 262.4770 15.08838153112137,6917.886,95.438,540.761,538.741,0.0
53182.0,STARLINK-4278,PAYLOAD,2024-07-25 04:51:59,15.08838952,0.0001795,53.2153,278.8869,117.4285,242.689,0.00016678,2.367e-05,0.0,0 STARLINK-4278,1 53182U 22083BC  24207.20277274  .00002367  00000-0  16678-3 0  9999,2 53182  53.2153 278.8869 0001795 117.4285 242.6890 15.08838952112259,6917.884,95.438,540.99,538.507,0.0
53182.0,STARLINK-4278,PAYLOAD,2024-07-25 09:38:08,15.08844313,0.0001802,53.2167,277.9971,111.5844,248.534,0.00021975,3.211e-05,0.0,0 STARLINK-4278,1 53182U 22083BC  24207.40149093  .00003211  00000-0  21975-3 0  9993,2 53182  53.2167 277.9971 0001802 111.5844 248.5340 15.08844313112920,6917.867,95.437,540.979,538.486,0.0
